ONEWEB-0558             
1 56059U 23043P   24188.80471465  .00000096  00000+0  20108-3 0  9993
2 56059  87.9276  25.3963 0001825  72.3112 287.8221 13.21828775 64392
ONEWEB-0559             
1 56060U 23043Q   24189.55066710  .00000009  00000+0 -98158-5 0  9998
2 56060  87.9275  25.2456 0002327  77.2839 282.8555 13.21826053 65413
ONEWEB-0566             
1 56061U 23043R   24188.93878027  .00000042  00000+0  70035-4 0  9991
2 56061  87.9274  25.3679 0001966  66.1923 293.9417 13.21827384 64406
ONEWEB-0568             
1 56062U 23043S   24189.50332186 -.00000095  00000+0 -28250-3 0  9998
2 56062  87.9098  10.0480 0001670 100.3052 259.8268 13.16594344 66507
ONEWEB-0574             
1 56063U 23043T   24188.93246008  .00000002  00000+0 -27383-4 0  9996
2 56063  87.9272  25.3633 0001678  85.6849 274.4477 13.21828672 64444
ONEWEB-0575             
1 56064U 23043U   24189.49698270  .00000152  00000+0  36448-3 0  9997
2 56064  87.9100  10.0585 0002226 103.4372 256.7007 13.16592960 66493
ONEWEB-0576             
1 56065U 23043V   24188.87001203 -.00000135  00000+0 -38730-3 0  9992
2 56065  87.9096  10.1801 0001776 104.0034 256.1294 13.16594088 65495
ONEWEB-0577             
1 56066U 23043W   24189.48431526 -.00000139  00000+0 -39723-3 0  9993
2 56066  87.9098  10.0573 0002460 104.8360 255.3044 13.16593842 66519
